0 DELTA 1 DEB
1 20309U 76077FQ  13285.25560517 -.00000107  00000-0 -67502-3 0    96
2 20309 102.6802 024.5407 0191988 033.8442 352.0034 12.07695622 22187
0 DELTA 1 DEB
1 20309U 76077FQ  13288.23841324  .00000005  00000-0  51499-3 0   100
2 20309 102.6821 027.4634 0192104 028.7948 000.3789 12.07694559 22545
0 DELTA 1 DEB
1 20309U 76077FQ  13291.22150598 -.00000112  00000-0 -72757-3 0   111
2 20309 102.6819 030.3842 0192073 023.6136 010.0918 12.07696707 22903
0 DELTA 1 DEB
1 20309U 76077FQ  13294.20285808 -.00000212  00000-0 -17895-2 0   128
2 20309 102.6825 033.3036 0192115 018.5223 012.1724 12.07698418 23264
